{
  "type": "FeatureCollection",
  "features": [
    {
      "type": "Feature",
      "properties": {
        "norad_id": 33886,
        "name": "IRIDIUM 33 DEB",
        "group": "iridium-33-debris",
        "lat": -60.980913459145505,
        "lon": 61.923814838430644,
        "alt_km": 772.7610498307849,
        "timestamp": "2025-12-09T18:55:17.616654+00:00",
        "meta_object_name": "IRIDIUM 33 DEB",
        "meta_object_id": "1997-051BF",
        "meta_epoch": "2025-12-09T12:34:01.371936",
        "meta_mean_motion": 14.36046616,
        "meta_eccentricity": 0.00121349,
        "meta_inclination": 86.3831,
        "meta_ra_of_asc_node": 68.5823,
        "meta_arg_of_pericenter": 254.1199,
        "meta_mean_anomaly": 116.7155,
        "meta_ephemeris_type": 0,
        "meta_classification_type": "U",
        "meta_norad_cat_id": 33886,
        "meta_element_set_no": 999,
        "meta_rev_at_epoch": 88006,
        "meta_bstar": 0.00037320213,
        "meta_mean_motion_dot": 1.105e-05,
        "meta_mean_motion_ddot": 0,
        "tle_line1": "1 33886U 97051BF  25343.52362699  .00001105  00000+0  37320-3 0  9993",
        "tle_line2": "2 33886  86.3831  68.5823 0012134 254.1199 116.7155 14.36046616880068"
      },
      "geometry": {
        "type": "Point",
        "coordinates": [
          61.923814838430644,
          -60.980913459145505
        ]
      }
    },
    {
      "type": "Feature",
      "properties": {
        "norad_id": 33887,
        "name": "IRIDIUM 33 DEB",
        "group": "iridium-33-debris",
        "lat": -42.5852193276149,
        "lon": -171.93042438916046,
        "alt_km": 771.5645133639882,
        "timestamp": "2025-12-09T18:55:17.616664+00:00",
        "meta_object_name": "IRIDIUM 33 DEB",
        "meta_object_id": "1997-051BG",
        "meta_epoch": "2025-12-09T07:58:22.365120",
        "meta_mean_motion": 14.37216828,
        "meta_eccentricity": 0.0004194,
        "meta_inclination": 86.3047,
        "meta_ra_of_asc_node": 4.8609,
        "meta_arg_of_pericenter": 242.0671,
        "meta_mean_anomaly": 141.6982,
        "meta_ephemeris_type": 0,
        "meta_classification_type": "U",
        "meta_norad_cat_id": 33887,
        "meta_element_set_no": 999,
        "meta_rev_at_epoch": 88116,
        "meta_bstar": 0.00025793,
        "meta_mean_motion_dot": 7.87e-06,
        "meta_mean_motion_ddot": 0,
        "tle_line1": "1 33887U 97051BG  25343.33220330  .00000787  00000+0  25793-3 0  9994",
        "tle_line2": "2 33887  86.3047   4.8609 0004194 242.0671 141.6982 14.37216828881163"
      },
      "geometry": {
        "type": "Point",
        "coordinates": [
          -171.93042438916046,
          -42.5852193276149
        ]
      }
    },
    {
      "type": "Feature",
      "properties": {
        "norad_id": 33953,
        "name": "IRIDIUM 33 DEB",
        "group": "iridium-33-debris",
        "lat": -66.23332591003057,
        "lon": -116.68349818743661,
        "alt_km": 725.0013818624129,
        "timestamp": "2025-12-09T18:55:17.616675+00:00",
        "meta_object_name": "IRIDIUM 33 DEB",
        "meta_object_id": "1997-051BN",
        "meta_epoch": "2025-12-09T11:16:25.701888",
        "meta_mean_motion": 14.55272572,
        "meta_eccentricity": 0.00184804,
        "meta_inclination": 86.384,
        "meta_ra_of_asc_node": 55.1984,
        "meta_arg_of_pericenter": 112.7861,
        "meta_mean_anomaly": 265.1429,
        "meta_ephemeris_type": 0,
        "meta_classification_type": "U",
        "meta_norad_cat_id": 33953,
        "meta_element_set_no": 999,
        "meta_rev_at_epoch": 88256,
        "meta_bstar": 0.0018147689,
        "meta_mean_motion_dot": 7.899e-05,
        "meta_mean_motion_ddot": 0,
        "tle_line1": "1 33953U 97051BN  25343.46974192  .00007899  00000+0  18148-2 0  9990",
        "tle_line2": "2 33953  86.3840  55.1984 0018480 112.7861 265.1429 14.55272572882561"
      },
      "geometry": {
        "type": "Point",
        "coordinates": [
          -116.68349818743661,
          -66.23332591003057
        ]
      }
    },
    {
      "type": "Feature",
      "properties": {
        "norad_id": 33960,
        "name": "IRIDIUM 33 DEB",
        "group": "iridium-33-debris",
        "lat": 83.91388137092879,
        "lon": 72.98478199985728,
        "alt_km": 601.8665718297689,
        "timestamp": "2025-12-09T18:55:17.616686+00:00",
        "meta_object_name": "IRIDIUM 33 DEB",
        "meta_object_id": "1997-051BV",
        "meta_epoch": "2025-12-09T14:26:17.488320",
        "meta_mean_motion": 14.84917848,
        "meta_eccentricity": 0.00073091,
        "meta_inclination": 86.2534,
        "meta_ra_of_asc_node": 290.9936,
        "meta_arg_of_pericenter": 67.1907,
        "meta_mean_anomaly": 109.5984,
        "meta_ephemeris_type": 0,
        "meta_classification_type": "U",
        "meta_norad_cat_id": 33960,
        "meta_element_set_no": 999,
        "meta_rev_at_epoch": 88820,
        "meta_bstar": 0.0042871377,
        "meta_mean_motion_dot": 0.00036674,
        "meta_mean_motion_ddot": 0,
        "tle_line1": "1 33960U 97051BV  25343.60159130  .00036674  00000+0  42871-2 0  9994",
        "tle_line2": "2 33960  86.2534 290.9936 0007309  67.1907 109.5984 14.84917848888204"
      },
      "geometry": {
        "type": "Point",
        "coordinates": [
          72.98478199985728,
          83.91388137092879
        ]
      }
    },
    {
      "type": "Feature",
      "properties": {
        "norad_id": 33966,
        "name": "IRIDIUM 33 DEB",
        "group": "iridium-33-debris",
        "lat": 72.51382131477706,
        "lon": 58.846348125398585,
        "alt_km": 723.0437740904281,
        "timestamp": "2025-12-09T18:55:17.616696+00:00",
        "meta_object_name": "IRIDIUM 33 DEB",
        "meta_object_id": "1997-051CB",
        "meta_epoch": "2025-12-09T14:14:54.064320",
        "meta_mean_motion": 14.49574792,
        "meta_eccentricity": 0.00070419,
        "meta_inclination": 86.3923,
        "meta_ra_of_asc_node": 47.3773,
        "meta_arg_of_pericenter": 198.8596,
        "meta_mean_anomaly": 298.6433,
        "meta_ephemeris_type": 0,
        "meta_classification_type": "U",
        "meta_norad_cat_id": 33966,
        "meta_element_set_no": 999,
        "meta_rev_at_epoch": 88396,
        "meta_bstar": 0.00091736668,
        "meta_mean_motion_dot": 3.54e-05,
        "meta_mean_motion_ddot": 0,
        "tle_line1": "1 33966U 97051CB  25343.59368130  .00003540  00000+0  91737-3 0  9992",
        "tle_line2": "2 33966  86.3923  47.3773 0007041 198.8596 298.6433 14.49574792883960"
      },
      "geometry": {
        "type": "Point",
        "coordinates": [
          58.846348125398585,
          72.51382131477706
        ]
      }
    },
    {
      "type": "Feature",
      "properties": {
        "norad_id": 34071,
        "name": "IRIDIUM 33 DEB",
        "group": "iridium-33-debris",
        "lat": 39.03037817909054,
        "lon": -163.8587579731094,
        "alt_km": 718.302882953978,
        "timestamp": "2025-12-09T18:55:17.616707+00:00",
        "meta_object_name": "IRIDIUM 33 DEB",
        "meta_object_id": "1997-051CE",
        "meta_epoch": "2025-12-09T11:38:50.524800",
        "meta_mean_motion": 14.49443549,
        "meta_eccentricity": 0.00098073,
        "meta_inclination": 86.3456,
        "meta_ra_of_asc_node": 19.2427,
        "meta_arg_of_pericenter": 116.2581,
        "meta_mean_anomaly": 243.9632,
        "meta_ephemeris_type": 0,
        "meta_classification_type": "U",
        "meta_norad_cat_id": 34071,
        "meta_element_set_no": 999,
        "meta_rev_at_epoch": 88287,
        "meta_bstar": 0.00098998317,
        "meta_mean_motion_dot": 3.809e-05,
        "meta_mean_motion_ddot": 0,
        "tle_line1": "1 34071U 97051CE  25343.48530700  .00003809  00000+0  98998-3 0  9996",
        "tle_line2": "2 34071  86.3456  19.2427 0009807 116.2581 243.9632 14.49443549882871"
      },
      "geometry": {
        "type": "Point",
        "coordinates": [
          -163.8587579731094,
          39.03037817909054
        ]
      }
    },
    {
      "type": "Feature",
      "properties": {
        "norad_id": 34077,
        "name": "IRIDIUM 33 DEB",
        "group": "iridium-33-debris",
        "lat": -0.47723523091474795,
        "lon": -127.16260392956244,
        "alt_km": 685.8952862915276,
        "timestamp": "2025-12-09T18:55:17.616718+00:00",
        "meta_object_name": "IRIDIUM 33 DEB",
        "meta_object_id": "1997-051CL",
        "meta_epoch": "2025-12-09T13:24:46.083744",
        "meta_mean_motion": 14.64764722,
        "meta_eccentricity": 0.00105225,
        "meta_inclination": 86.386,
        "meta_ra_of_asc_node": 52.9083,
        "meta_arg_of_pericenter": 49.5485,
        "meta_mean_anomaly": 1.1471,
        "meta_ephemeris_type": 0,
        "meta_classification_type": "U",
        "meta_norad_cat_id": 34077,
        "meta_element_set_no": 999,
        "meta_rev_at_epoch": 88286,
        "meta_bstar": 0.002280064,
        "meta_mean_motion_dot": 0.00012191,
        "meta_mean_motion_ddot": 0,
        "tle_line1": "1 34077U 97051CL  25343.55886671  .00012191  00000+0  22801-2 0  9994",
        "tle_line2": "2 34077  86.3860  52.9083 0010522  49.5485   1.1471 14.64764722882865"
      },
      "geometry": {
        "type": "Point",
        "coordinates": [
          -127.16260392956244,
          -0.47723523091474795
        ]
      }
    }
  ]
}